[{"OBJECT_NAME":"STARLINK-3637","OBJECT_ID":"2022-017AH","EPOCH":"2026-03-09T02:14:54.917088","MEAN_MOTION":15.08836291,"ECCENTRICITY":0.00012489,"INCLINATION":53.2187,"RA_OF_ASC_NODE":351.7963,"ARG_OF_PERICENTER":89.4046,"MEAN_ANOMALY":270.7089,"EPHEMERIS_TYPE":0,"CLASSIFICATION_TYPE":"U","NORAD_CAT_ID":51799,"ELEMENT_SET_NO":999,"REV_AT_EPOCH":22383,"BSTAR":-4.38249e-7,"MEAN_MOTION_DOT":-2.95e-6,"MEAN_MOTION_DDOT":0},{"OBJECT_NAME":"LEMUR-2-STELLA","OBJECT_ID":"2024-149BT","EPOCH":"2026-03-09T17:26:15.951264","MEAN_MOTION":15.09464064,"ECCENTRICITY":0.0001299,"INCLINATION":97.6764,"RA_OF_ASC_NODE":150.9122,"ARG_OF_PERICENTER":95.1117,"MEAN_ANOMALY":265.026,"EPHEMERIS_TYPE":0,"CLASSIFICATION_TYPE":"U","NORAD_CAT_ID":60533,"ELEMENT_SET_NO":999,"REV_AT_EPOCH":8548,"BSTAR":0.00085776432,"MEAN_MOTION_DOT":0.00013685,"MEAN_MOTION_DDOT":0}]
